{"fetched_at":"2026-03-29T02:12:04Z","count":15717,"tles":[{"name":"GSAT0220 (GALILEO 24)","line1":"1 43567U 18060D   26086.01803140 -.00000096  00000+0  00000+0 0  9993","line2":"2 43567  57.1973 344.0063 0004469 319.2855  40.7149  1.70475173 47770","category":"GPS"}]}